DUPLEX                  
1 66906U 98067XS  26104.13458380  .00017871  00000+0  23493-3 0  9999
2 66906  51.6278 251.8459 0003805 287.9361  72.1216 15.58561336 20659
ISS OBJECT XT           
1 66907U 98067XT  26103.57707931  .00247531  00000+0  97677-3 0  9999
2 66907  51.6198 245.7992 0009779 304.7260  55.2822 15.85527994 20687
ISS OBJECT XU           
1 66908U 98067XU  26103.63261146  .00251994  00000+0  97003-3 0  9991
2 66908  51.6198 245.4152 0009773 303.4095  56.5974 15.86028515 20698
SILVERSAT               
1 66909U 98067XV  26103.56967840  .00595033  16365-3  12506-2 0  9992
2 66909  51.6152 243.4532 0013366 312.0887  47.8985 15.98147886 20711
ISS OBJECT XW           
1 66910U 98067XW  26104.11113945  .00194299  00000+0  88482-3 0  9996
2 66910  51.6190 243.3576 0009406 301.7076  58.3009 15.82666844 20769
ISS OBJECT XY           
1 66912U 98067XY  26103.58344285  .00077849  00000+0  59212-3 0  9991
2 66912  51.6240 249.6403 0006219 295.7555  64.2801 15.71567300 20624
KNACKSAT-2              
1 67683U 98067XZ  26103.59735838  .00023774  00000+0  35547-3 0  9999
2 67683  51.6305 258.0103 0011243 317.2069  42.8046 15.54814916 10212
CORAL                   
1 67684U 98067YA  26104.11861757  .00058880  00000+0  69126-3 0  9995
2 67684  51.6274 253.9895 0014890 311.4675  48.5039 15.60765703 10312
GXIBA-1                 
1 67685U 98067YB  26103.83786394  .00028465  00000+0  41230-3 0  9999
2 67685  51.6292 256.6171 0013238 315.0599  44.9320 15.55547785 10258
UITMSAT-2               
1 67686U 98067YC  26104.13217833  .00034980  00000+0  48021-3 0  9995
2 67686  51.6288 254.8333 0010212 294.3951  65.5975 15.56930080 10300
HMU-SAT2                
1 67687U 98067YD  26103.71716603  .00027123  00000+0  39854-3 0  9993
2 67687  51.6299 257.3144 0009617 294.3190  65.6797 15.55230136 10153
LEOPARD                 
1 67688U 98067YE  26103.69495971  .00032400  00000+0  45642-3 0  9999
2 67688  51.6292 257.1654 0009834 292.7235  67.2716 15.56276818 10151
CREW DRAGON 12          
1 67796U 26031A   26104.13467087  .00005375  00000+0  10597-3 0  9990
2 67796  51.6322 257.0967 0006555 310.1862  49.8552 15.48905907561850
PROGRESS-MS 33          
1 68319U 26058A   26104.13467087  .00005375  00000+0  10597-3 0  9991
2 68319  51.6322 257.0967 0006555 310.1862  49.8552 15.48905907  3167
CYGNUS NG-24            
1 68689U 26079A   26104.13467087  .00005375  00000+0  10597-3 0  9994
2 68689  51.6322 257.0967 0006555 310.1862  49.8552 15.48905907   333
