[{"OBJECT_NAME":"DUPLEX","OBJECT_ID":"1998-067XS","EPOCH":"2026-04-14T03:13:48.040320","MEAN_MOTION":15.58561336,"ECCENTRICITY":0.00038055,"INCLINATION":51.6278,"RA_OF_ASC_NODE":251.8459,"ARG_OF_PERICENTER":287.9361,"MEAN_ANOMALY":72.1216,"EPHEMERIS_TYPE":0,"CLASSIFICATION_TYPE":"U","NORAD_CAT_ID":66906,"ELEMENT_SET_NO":999,"REV_AT_EPOCH":2065,"BSTAR":0.00023493213,"MEAN_MOTION_DOT":0.00017871,"MEAN_MOTION_DDOT":0},{"OBJECT_NAME":"ISS OBJECT XT","OBJECT_ID":"1998-067XT","EPOCH":"2026-04-13T13:50:59.652384","MEAN_MOTION":15.85527994,"ECCENTRICITY":0.0009779,"INCLINATION":51.6198,"RA_OF_ASC_NODE":245.7992,"ARG_OF_PERICENTER":304.726,"MEAN_ANOMALY":55.2822,"EPHEMERIS_TYPE":0,"CLASSIFICATION_TYPE":"U","NORAD_CAT_ID":66907,"ELEMENT_SET_NO":999,"REV_AT_EPOCH":2068,"BSTAR":0.00097677,"MEAN_MOTION_DOT":0.00247531,"MEAN_MOTION_DDOT":0},{"OBJECT_NAME":"ISS OBJECT XU","OBJECT_ID":"1998-067XU","EPOCH":"2026-04-13T15:10:57.630144","MEAN_MOTION":15.86028515,"ECCENTRICITY":0.00097731,"INCLINATION":51.6198,"RA_OF_ASC_NODE":245.4152,"ARG_OF_PERICENTER":303.4095,"MEAN_ANOMALY":56.5974,"EPHEMERIS_TYPE":0,"CLASSIFICATION_TYPE":"U","NORAD_CAT_ID":66908,"ELEMENT_SET_NO":999,"REV_AT_EPOCH":2069,"BSTAR":0.0009700278,"MEAN_MOTION_DOT":0.00251994,"MEAN_MOTION_DDOT":0},{"OBJECT_NAME":"SILVERSAT","OBJECT_ID":"1998-067XV","EPOCH":"2026-04-13T13:40:20.213760","MEAN_MOTION":15.98147886,"ECCENTRICITY":0.0013366,"INCLINATION":51.6152,"RA_OF_ASC_NODE":243.4532,"ARG_OF_PERICENTER":312.0887,"MEAN_ANOMALY":47.8985,"EPHEMERIS_TYPE":0,"CLASSIFICATION_TYPE":"U","NORAD_CAT_ID":66909,"ELEMENT_SET_NO":999,"REV_AT_EPOCH":2071,"BSTAR":0.0012506,"MEAN_MOTION_DOT":0.00595033,"MEAN_MOTION_DDOT":0.00016365},{"OBJECT_NAME":"ISS OBJECT XW","OBJECT_ID":"1998-067XW","EPOCH":"2026-04-14T02:40:02.448480","MEAN_MOTION":15.82666844,"ECCENTRICITY":0.0009406,"INCLINATION":51.619,"RA_OF_ASC_NODE":243.3576,"ARG_OF_PERICENTER":301.7076,"MEAN_ANOMALY":58.3009,"EPHEMERIS_TYPE":0,"CLASSIFICATION_TYPE":"U","NORAD_CAT_ID":66910,"ELEMENT_SET_NO":999,"REV_AT_EPOCH":2076,"BSTAR":0.00088481541,"MEAN_MOTION_DOT":0.00194299,"MEAN_MOTION_DDOT":0},{"OBJECT_NAME":"ISS OBJECT XY","OBJECT_ID":"1998-067XY","EPOCH":"2026-04-13T14:00:09.462240","MEAN_MOTION":15.715673,"ECCENTRICITY":0.0006219,"INCLINATION":51.624,"RA_OF_ASC_NODE":249.6403,"ARG_OF_PERICENTER":295.7555,"MEAN_ANOMALY":64.2801,"EPHEMERIS_TYPE":0,"CLASSIFICATION_TYPE":"U","NORAD_CAT_ID":66912,"ELEMENT_SET_NO":999,"REV_AT_EPOCH":2062,"BSTAR":0.00059212,"MEAN_MOTION_DOT":0.00077849,"MEAN_MOTION_DDOT":0},{"OBJECT_NAME":"KNACKSAT-2","OBJECT_ID":"1998-067XZ","EPOCH":"2026-04-13T14:20:11.764032","MEAN_MOTION":15.54814916,"ECCENTRICITY":0.0011243,"INCLINATION":51.6305,"RA_OF_ASC_NODE":258.0103,"ARG_OF_PERICENTER":317.2069,"MEAN_ANOMALY":42.8046,"EPHEMERIS_TYPE":0,"CLASSIFICATION_TYPE":"U","NORAD_CAT_ID":67683,"ELEMENT_SET_NO":999,"REV_AT_EPOCH":1021,"BSTAR":0.00035547,"MEAN_MOTION_DOT":0.00023774,"MEAN_MOTION_DDOT":0},{"OBJECT_NAME":"CORAL","OBJECT_ID":"1998-067YA","EPOCH":"2026-04-14T02:50:48.558048","MEAN_MOTION":15.60765703,"ECCENTRICITY":0.00148909,"INCLINATION":51.6274,"RA_OF_ASC_NODE":253.9895,"ARG_OF_PERICENTER":311.4675,"MEAN_ANOMALY":48.5039,"EPHEMERIS_TYPE":0,"CLASSIFICATION_TYPE":"U","NORAD_CAT_ID":67684,"ELEMENT_SET_NO":999,"REV_AT_EPOCH":1031,"BSTAR":0.00069126287,"MEAN_MOTION_DOT":0.0005888,"MEAN_MOTION_DDOT":0},{"OBJECT_NAME":"GXIBA-1","OBJECT_ID":"1998-067YB","EPOCH":"2026-04-13T20:06:31.444416","MEAN_MOTION":15.55547785,"ECCENTRICITY":0.0013238,"INCLINATION":51.6292,"RA_OF_ASC_NODE":256.6171,"ARG_OF_PERICENTER":315.0599,"MEAN_ANOMALY":44.932,"EPHEMERIS_TYPE":0,"CLASSIFICATION_TYPE":"U","NORAD_CAT_ID":67685,"ELEMENT_SET_NO":999,"REV_AT_EPOCH":1025,"BSTAR":0.0004123,"MEAN_MOTION_DOT":0.00028465,"MEAN_MOTION_DDOT":0},{"OBJECT_NAME":"UITMSAT-2","OBJECT_ID":"1998-067YC","EPOCH":"2026-04-14T03:10:20.207712","MEAN_MOTION":15.5693008,"ECCENTRICITY":0.00102127,"INCLINATION":51.6288,"RA_OF_ASC_NODE":254.8333,"ARG_OF_PERICENTER":294.3951,"MEAN_ANOMALY":65.5975,"EPHEMERIS_TYPE":0,"CLASSIFICATION_TYPE":"U","NORAD_CAT_ID":67686,"ELEMENT_SET_NO":999,"REV_AT_EPOCH":1030,"BSTAR":0.00048021164,"MEAN_MOTION_DOT":0.0003498,"MEAN_MOTION_DDOT":0},{"OBJECT_NAME":"HMU-SAT2","OBJECT_ID":"1998-067YD","EPOCH":"2026-04-13T17:12:43.144992","MEAN_MOTION":15.55230136,"ECCENTRICITY":0.0009617,"INCLINATION":51.6299,"RA_OF_ASC_NODE":257.3144,"ARG_OF_PERICENTER":294.319,"MEAN_ANOMALY":65.6797,"EPHEMERIS_TYPE":0,"CLASSIFICATION_TYPE":"U","NORAD_CAT_ID":67687,"ELEMENT_SET_NO":999,"REV_AT_EPOCH":1015,"BSTAR":0.00039854,"MEAN_MOTION_DOT":0.00027123,"MEAN_MOTION_DDOT":0},{"OBJECT_NAME":"LEOPARD","OBJECT_ID":"1998-067YE","EPOCH":"2026-04-13T16:40:44.518944","MEAN_MOTION":15.56276818,"ECCENTRICITY":0.0009834,"INCLINATION":51.6292,"RA_OF_ASC_NODE":257.1654,"ARG_OF_PERICENTER":292.7235,"MEAN_ANOMALY":67.2716,"EPHEMERIS_TYPE":0,"CLASSIFICATION_TYPE":"U","NORAD_CAT_ID":67688,"ELEMENT_SET_NO":999,"REV_AT_EPOCH":1015,"BSTAR":0.00045642,"MEAN_MOTION_DOT":0.000324,"MEAN_MOTION_DDOT":0},{"OBJECT_NAME":"CREW DRAGON 12","OBJECT_ID":"2026-031A","EPOCH":"2026-04-14T03:13:55.563168","MEAN_MOTION":15.48905907,"ECCENTRICITY":0.00065556,"INCLINATION":51.6322,"RA_OF_ASC_NODE":257.0967,"ARG_OF_PERICENTER":310.1862,"MEAN_ANOMALY":49.8552,"EPHEMERIS_TYPE":0,"CLASSIFICATION_TYPE":"U","NORAD_CAT_ID":67796,"ELEMENT_SET_NO":999,"REV_AT_EPOCH":56185,"BSTAR":0.00010597226,"MEAN_MOTION_DOT":5.375e-5,"MEAN_MOTION_DDOT":0},{"OBJECT_NAME":"PROGRESS-MS 33","OBJECT_ID":"2026-058A","EPOCH":"2026-04-14T03:13:55.563168","MEAN_MOTION":15.48905907,"ECCENTRICITY":0.00065556,"INCLINATION":51.6322,"RA_OF_ASC_NODE":257.0967,"ARG_OF_PERICENTER":310.1862,"MEAN_ANOMALY":49.8552,"EPHEMERIS_TYPE":0,"CLASSIFICATION_TYPE":"U","NORAD_CAT_ID":68319,"ELEMENT_SET_NO":999,"REV_AT_EPOCH":316,"BSTAR":0.00010597226,"MEAN_MOTION_DOT":5.375e-5,"MEAN_MOTION_DDOT":0},{"OBJECT_NAME":"CYGNUS NG-24","OBJECT_ID":"2026-079A","EPOCH":"2026-04-14T03:13:55.563168","MEAN_MOTION":15.48905907,"ECCENTRICITY":0.00065556,"INCLINATION":51.6322,"RA_OF_ASC_NODE":257.0967,"ARG_OF_PERICENTER":310.1862,"MEAN_ANOMALY":49.8552,"EPHEMERIS_TYPE":0,"CLASSIFICATION_TYPE":"U","NORAD_CAT_ID":68689,"ELEMENT_SET_NO":999,"REV_AT_EPOCH":33,"BSTAR":0.00010597226,"MEAN_MOTION_DOT":5.375e-5,"MEAN_MOTION_DDOT":0}]
